{
    "links": {
        "self": "http://www.neowsapp.com/rest/v1/neo/3523341?api_key=iIulBulltgU6a56xZRHN4H3l9WmuAYTsLGpBGhQ2"
    },
    "id": "3523341",
    "neo_reference_id": "3523341",
    "name": "(2010 KB8)",
    "designation": "2010 KB8",
    "nasa_jpl_url": "http://ssd.jpl.nasa.gov/sbdb.cgi?sstr=3523341",
    "absolute_magnitude_h": 24.0,
    "estimated_diameter": {
        "kilometers": {
            "estimated_diameter_min": 0.0421264611,
            "estimated_diameter_max": 0.0941976306
        },
        "meters": {
            "estimated_diameter_min": 42.1264610556,
            "estimated_diameter_max": 94.1976305719
        },
        "miles": {
            "estimated_diameter_min": 0.0261761612,
            "estimated_diameter_max": 0.0585316759
        },
        "feet": {
            "estimated_diameter_min": 138.2101784897,
            "estimated_diameter_max": 309.0473542854
        }
    },
    "is_potentially_hazardous_asteroid": false,
    "close_approach_data": [
        {
            "close_approach_date": "2010-05-23",
            "close_approach_date_full": "2010-May-23 12:48",
            "epoch_date_close_approach": 1274618880000,
            "relative_velocity": {
                "kilometers_per_second": "28.5980654178",
                "kilometers_per_hour": "102953.0355040688",
                "miles_per_hour": "63971.0125330699"
            },
            "miss_distance": {
                "astronomical": "0.0198472748",
                "lunar": "7.7205898972",
                "kilometers": "2969110.035384676",
                "miles": "1844919.4259374888"
            },
            "orbiting_body": "Earth"
        }
    ],
    "orbital_data": {
        "orbit_id": "10",
        "orbit_determination_date": "2017-04-06 08:57:27",
        "first_observation_date": "2010-05-19",
        "last_observation_date": "2010-05-23",
        "data_arc_in_days": 4,
        "observations_used": 52,
        "orbit_uncertainty": "9",
        "minimum_orbit_intersection": ".00703843",
        "jupiter_tisserand_invariant": "4.364",
        "epoch_osculation": "2455337.5",
        "eccentricity": ".826874073405147",
        "semi_major_axis": "1.374420989454976",
        "inclination": "1.893498429207707",
        "ascending_node_longitude": "73.61339441418636",
        "orbital_period": "588.5428597325154",
        "perihelion_distance": ".2379479073308075",
        "perihelion_argument": "301.4403143928505",
        "aphelion_distance": "2.510894071579145",
        "perihelion_time": "2455383.789781037930",
        "mean_anomaly": "331.6854585896625",
        "mean_motion": ".6116801759579839",
        "equinox": "J2000",
        "orbit_class": {
            "orbit_class_type": "APO",
            "orbit_class_description": "Near-Earth asteroid orbits which cross the Earth’s orbit similar to that of 1862 Apollo",
            "orbit_class_range": "a (semi-major axis) > 1.0 AU; q (perihelion) < 1.017 AU"
        }
    },
    "is_sentry_object": false
}